[{"OBJECT_NAME":"SVYATOBOR 1 (RS60S)","OBJECT_ID":"2023-091X","EPOCH":"2024-10-09T12:42:04.608000","MEAN_MOTION":15.12168988,"ECCENTRICITY":0.0014344,"INCLINATION":97.6008,"RA_OF_ASC_NODE":335.6649,"ARG_OF_PERICENTER":79.4551,"MEAN_ANOMALY":280.8295,"EPHEMERIS_TYPE":0,"CLASSIFICATION_TYPE":"U","NORAD_CAT_ID":57187,"ELEMENT_SET_NO":999,"REV_AT_EPOCH":7079,"BSTAR":0.00093324,"MEAN_MOTION_DOT":0.00016095,"MEAN_MOTION_DDOT":0},{"OBJECT_NAME":"VIZARD-METEO (RS38S)","OBJECT_ID":"2023-091Z","EPOCH":"2024-10-09T13:19:16.411584","MEAN_MOTION":15.14326251,"ECCENTRICITY":0.0013029,"INCLINATION":97.6002,"RA_OF_ASC_NODE":336.3518,"ARG_OF_PERICENTER":76.6181,"MEAN_ANOMALY":283.6502,"EPHEMERIS_TYPE":0,"CLASSIFICATION_TYPE":"U","NORAD_CAT_ID":57189,"ELEMENT_SET_NO":999,"REV_AT_EPOCH":7084,"BSTAR":0.0011556,"MEAN_MOTION_DOT":0.00021193,"MEAN_MOTION_DDOT":0},{"OBJECT_NAME":"NANOZOND 1 (RS49S)","OBJECT_ID":"2023-091AA","EPOCH":"2024-10-09T12:13:55.488000","MEAN_MOTION":15.18707337,"ECCENTRICITY":0.0010881,"INCLINATION":97.5968,"RA_OF_ASC_NODE":337.3283,"ARG_OF_PERICENTER":79.8344,"MEAN_ANOMALY":280.4116,"EPHEMERIS_TYPE":0,"CLASSIFICATION_TYPE":"U","NORAD_CAT_ID":57190,"ELEMENT_SET_NO":999,"REV_AT_EPOCH":7091,"BSTAR":0.0017708,"MEAN_MOTION_DOT":0.00036884,"MEAN_MOTION_DDOT":0},{"OBJECT_NAME":"POLYTECH-UNIVERSE 3 (RS46S)","OBJECT_ID":"2023-091AB","EPOCH":"2024-10-09T12:34:09.042528","MEAN_MOTION":15.09781281,"ECCENTRICITY":0.0020454,"INCLINATION":97.5974,"RA_OF_ASC_NODE":334.5437,"ARG_OF_PERICENTER":97.5214,"MEAN_ANOMALY":262.834,"EPHEMERIS_TYPE":0,"CLASSIFICATION_TYPE":"U","NORAD_CAT_ID":57191,"ELEMENT_SET_NO":999,"REV_AT_EPOCH":7073,"BSTAR":0.00078644,"MEAN_MOTION_DOT":0.00012712,"MEAN_MOTION_DDOT":0},{"OBJECT_NAME":"UTMN 2 (RS27S)","OBJECT_ID":"2023-091AP","EPOCH":"2024-10-09T12:37:00.451488","MEAN_MOTION":15.13539379,"ECCENTRICITY":0.0013433,"INCLINATION":97.5997,"RA_OF_ASC_NODE":336.0802,"ARG_OF_PERICENTER":77.2025,"MEAN_ANOMALY":283.0706,"EPHEMERIS_TYPE":0,"CLASSIFICATION_TYPE":"U","NORAD_CAT_ID":57203,"ELEMENT_SET_NO":999,"REV_AT_EPOCH":7082,"BSTAR":0.0010718,"MEAN_MOTION_DOT":0.00019219,"MEAN_MOTION_DDOT":0},{"OBJECT_NAME":"ARCCUBE 1 (RS25S)","OBJECT_ID":"2023-091AR","EPOCH":"2024-10-09T12:04:03.996192","MEAN_MOTION":15.2096774,"ECCENTRICITY":0.0010671,"INCLINATION":97.5931,"RA_OF_ASC_NODE":337.6505,"ARG_OF_PERICENTER":80.0138,"MEAN_ANOMALY":280.2301,"EPHEMERIS_TYPE":0,"CLASSIFICATION_TYPE":"U","NORAD_CAT_ID":57205,"ELEMENT_SET_NO":999,"REV_AT_EPOCH":7094,"BSTAR":0.0019829,"MEAN_MOTION_DOT":0.00044149,"MEAN_MOTION_DDOT":0},{"OBJECT_NAME":"KUZGTU 1 (RS47S)","OBJECT_ID":"2023-091AV","EPOCH":"2024-10-09T09:27:10.619424","MEAN_MOTION":15.1215881,"ECCENTRICITY":0.0017638,"INCLINATION":97.5986,"RA_OF_ASC_NODE":334.9555,"ARG_OF_PERICENTER":87.8385,"MEAN_ANOMALY":272.4865,"EPHEMERIS_TYPE":0,"CLASSIFICATION_TYPE":"U","NORAD_CAT_ID":57217,"ELEMENT_SET_NO":999,"REV_AT_EPOCH":7074,"BSTAR":0.0015576,"MEAN_MOTION_DOT":0.00026974,"MEAN_MOTION_DDOT":0},{"OBJECT_NAME":"HADES-D (SO-121)","OBJECT_ID":"2023-174CY","EPOCH":"2024-10-09T10:57:28.251072","MEAN_MOTION":15.61656692,"ECCENTRICITY":0.0007898,"INCLINATION":97.434,"RA_OF_ASC_NODE":1.2611,"ARG_OF_PERICENTER":214.8005,"MEAN_ANOMALY":145.2736,"EPHEMERIS_TYPE":0,"CLASSIFICATION_TYPE":"U","NORAD_CAT_ID":58567,"ELEMENT_SET_NO":999,"REV_AT_EPOCH":5137,"BSTAR":0.0058472,"MEAN_MOTION_DOT":0.00536927,"MEAN_MOTION_DDOT":0},{"OBJECT_NAME":"SONATE-2","OBJECT_ID":"2024-043Q","EPOCH":"2024-10-09T14:43:47.955072","MEAN_MOTION":15.232005,"ECCENTRICITY":0.0013166,"INCLINATION":97.4909,"RA_OF_ASC_NODE":46.613,"ARG_OF_PERICENTER":253.3002,"MEAN_ANOMALY":106.679,"EPHEMERIS_TYPE":0,"CLASSIFICATION_TYPE":"U","NORAD_CAT_ID":59112,"ELEMENT_SET_NO":999,"REV_AT_EPOCH":3319,"BSTAR":0.001268,"MEAN_MOTION_DOT":0.00030087,"MEAN_MOTION_DDOT":0},{"OBJECT_NAME":"MESAT1","OBJECT_ID":"2024-125G","EPOCH":"2024-10-09T14:13:13.143936","MEAN_MOTION":15.23203193,"ECCENTRICITY":0.0022973,"INCLINATION":97.3084,"RA_OF_ASC_NODE":133.6712,"ARG_OF_PERICENTER":284.3443,"MEAN_ANOMALY":75.5243,"EPHEMERIS_TYPE":0,"CLASSIFICATION_TYPE":"U","NORAD_CAT_ID":60209,"ELEMENT_SET_NO":999,"REV_AT_EPOCH":1480,"BSTAR":0.0011718,"MEAN_MOTION_DOT":0.00027931,"MEAN_MOTION_DDOT":0},{"OBJECT_NAME":"OOV-CUBE (TUBSAT-30)","OBJECT_ID":"2024-128F","EPOCH":"2024-10-09T04:27:32.362272","MEAN_MOTION":14.97461719,"ECCENTRICITY":0.0018315,"INCLINATION":61.9972,"RA_OF_ASC_NODE":206.0729,"ARG_OF_PERICENTER":342.3267,"MEAN_ANOMALY":17.7182,"EPHEMERIS_TYPE":0,"CLASSIFICATION_TYPE":"U","NORAD_CAT_ID":60240,"ELEMENT_SET_NO":999,"REV_AT_EPOCH":1367,"BSTAR":0.001077,"MEAN_MOTION_DOT":0.00012475,"MEAN_MOTION_DDOT":0}]
