SVYATOBOR 1 (RS60S)     
1 57187U 23091X   24283.52922000  .00016095  00000+0  93324-3 0  9996
2 57187  97.6008 335.6649 0014344  79.4551 280.8295 15.12168988 70799
VIZARD-METEO (RS38S)    
1 57189U 23091Z   24283.55505106  .00021193  00000+0  11556-2 0  9996
2 57189  97.6002 336.3518 0013029  76.6181 283.6502 15.14326251 70844
NANOZOND 1 (RS49S)      
1 57190U 23091AA  24283.50967000  .00036884  00000+0  17708-2 0  9996
2 57190  97.5968 337.3283 0010881  79.8344 280.4116 15.18707337 70911
POLYTECH-UNIVERSE 3 (R*)
1 57191U 23091AB  24283.52371577  .00012712  00000+0  78644-3 0  9998
2 57191  97.5974 334.5437 0020454  97.5214 262.8340 15.09781281 70732
UTMN 2 (RS27S)          
1 57203U 23091AP  24283.52569967  .00019219  00000+0  10718-2 0  9990
2 57203  97.5997 336.0802 0013433  77.2025 283.0706 15.13539379 70823
ARCCUBE 1 (RS25S)       
1 57205U 23091AR  24283.50282403  .00044149  00000+0  19829-2 0  9999
2 57205  97.5931 337.6505 0010671  80.0138 280.2301 15.20967740 70946
KUZGTU 1 (RS47S)        
1 57217U 23091AV  24283.39387291  .00026974  00000+0  15576-2 0  9991
2 57217  97.5986 334.9555 0017638  87.8385 272.4865 15.12158810 70740
HADES-D (SO-121)        
1 58567U 23174CY  24283.45657698  .00536927  00000+0  58472-2 0  9996
2 58567  97.4340   1.2611 0007898 214.8005 145.2736 15.61656692 51374
SONATE-2                
1 59112U 24043Q   24283.61374948  .00030087  00000+0  12680-2 0  9998
2 59112  97.4909  46.6130 0013166 253.3002 106.6790 15.23200500 33193
MESAT1                  
1 60209U 24125G   24283.59251324  .00027931  00000+0  11718-2 0  9992
2 60209  97.3084 133.6712 0022973 284.3443  75.5243 15.23203193 14802
OOV-CUBE (TUBSAT-30)    
1 60240U 24128F   24283.18579123  .00012475  00000+0  10770-2 0  9999
2 60240  61.9972 206.0729 0018315 342.3267  17.7182 14.97461719 13671
